TIANMU-1 07             
1 57399U 23101A   26065.57454230  .00008352  00000+0  29795-3 0  9991
2 57399  97.2728 118.5929 0004609 142.4105 217.7458 15.29118809145964
STARLINK-34833          
1 65218U 25176W   26068.45919441  .00030699  00000+0  10451-2 0  9991
2 65218  53.1574 153.9056 0001028  74.9373 285.1742 15.30175990 33085
